STARLINK-4454           
1 53499U 22099AL  22244.25001157 -.01201313  00000+0 -17199-1 0  9997
2 53499  97.6556   3.2599 0001943  67.3919 139.0093 15.59011493  3286
STARLINK-4455           
1 53500U 22099AM  22244.25001157 -.01201413  00000+0 -17210-1 0  9995
2 53500  97.6556   3.2606 0001930  68.8862 136.1006 15.58997229  3299
STARLINK-4434           
1 53501U 22099AN  22244.25001157 -.01094741  00000+0 -15559-1 0  9994
2 53501  97.6555   3.2604 0001769  74.2110 134.3550 15.58950034  3280
STARLINK-4435           
1 53502U 22099AP  22244.25001157 -.01242727  00000+0 -17832-1 0  9990
2 53502  97.6553   3.2610 0001889  79.5819 127.5067 15.59053189  3286
STARLINK-4461           
1 53503U 22099AQ  22243.91667824 -.01343971  00000+0 -18424-1 0  9993
2 53503  97.6555   2.9003 0001926  76.4331  62.6079 15.60008790  1301
STARLINK-4448           
1 53504U 22099AR  22243.91667824 -.01349707  00000+0 -18518-1 0  9991
2 53504  97.6557   2.9011 0001898  75.0339  62.6081 15.59998925  1303
STARLINK-4446           
1 53505U 22099AS  22244.25001157 -.01201346  00000+0 -17167-1 0  9996
2 53505  97.6556   3.2583 0001898  72.3500 138.9993 15.59061728  3281
STARLINK-4437           
1 53506U 22099AT  22244.25001157 -.01082638  00000+0 -15368-1 0  9999
2 53506  97.6555   3.2595 0001717  87.8434 122.1424 15.58954179  3285
STARLINK-4444           
1 53507U 22099AU  22244.25001157 -.01201264  00000+0 -17161-1 0  9991
2 53507  97.6556   3.2579 0001907  71.1454 140.9105 15.59068847  3281
STARLINK-4443           
1 53508U 22099AV  22244.25001157 -.01201127  00000+0 -17168-1 0  9997
2 53508  97.6556   3.2586 0001946  66.8917 143.7510 15.59054406  3285
STARLINK-4402           
1 53509U 22099AW  22244.25001157 -.01232638  00000+0 -17633-1 0  9996
2 53509  97.6554   3.2584 0001886  73.1143 140.3394 15.59109476  3288
STARLINK-4441           
1 53510U 22099AX  22244.25001157 -.01203421  00000+0 -17188-1 0  9991
2 53510  97.6554   3.2585 0001815  77.4087 135.3486 15.59080781  3280
FALCON 9 DEB            
1 53511U 22099AY  22243.91368715  .00149568  10421-4  49486-3 0  9999
2 53511  97.6770   3.4025 0009452 212.5615 147.5075 15.90338627  3027
FALCON 9 DEB            
1 53512U 22099AZ  22243.27905231  .00175350  13513-4  56748-3 0  9991
2 53512  97.6741   2.6924 0007346 214.4793 145.6004 15.90792331  2928
FALCON 9 DEB            
1 53513U 22099BA  22243.89367208  .00187878  15450-4  55582-3 0  9991
2 53513  97.6737   3.4144 0010192 195.5229 164.5733 15.92490966  3025
FALCON 9 DEB            
1 53514U 22099BB  22243.89039767  .00188327  15547-4  55142-3 0  9997
2 53514  97.6726   3.4150 0009397 179.0585 181.0708 15.92704114  3027
2022-100A               
1 53522U 22100A   22243.97385740  .00006140  00000+0  25729-3 0  9996
2 53522  35.0010 130.7747 0007529   5.5750 354.5047 15.22834660  1873
2022-100B               
1 53523U 22100B   22243.96984536  .00009828  00000+0  40228-3 0  9991
2 53523  35.0017 130.7404 0008230  10.1064 349.9814 15.23525829  1876
2022-100C               
1 53524U 22100C   22243.90508589  .00006296  00000+0  26357-3 0  9999
2 53524  34.9999 131.1620 0005728   5.0149 355.0634 15.22871278  1818
2022-100D               
1 53525U 22100D   22243.96722185  .00010182  00000+0  41254-3 0  9998
2 53525  35.0038 130.7208 0008604  18.9309 341.1739 15.23858826  1827
2022-100E               
1 53526U 22100E   22244.10368789  .00004019  00000+0  16948-3 0  9996
2 53526  35.0019 129.9425 0005637  16.0054 344.0839 15.22750343  1846
STARLINK-4511           
1 53527U 22101A   22244.16668981 -.00038788  00000+0 -27247-3 0  9997
2 53527  53.2148  93.5044 0000883  39.7421  12.8325 15.73265017  1972
STARLINK-4503           
1 53528U 22101B   22243.91667824 -.00048008  00000+0 -33827-3 0  9992
2 53528  53.2159  94.7454 0001563  62.0229  13.1097 15.73289662  1303
STARLINK-4478           
1 53529U 22101C   22244.16668981 -.00034611  00000+0 -24390-3 0  9996
2 53529  53.2148  93.5029 0001118  54.7534 358.4951 15.73133897  1975
STARLINK-4482           
1 53530U 22101D   22243.91667824 -.00011684  00000+0 -78956-4 0  9998
2 53530  53.2154  94.7391 0001507  61.9160  15.7503 15.73196597  1305
STARLINK-4487           
1 53531U 22101E   22244.16668981 -.00006589  00000+0 -42627-4 0  9996
2 53531  53.2151  93.5023 0001151  49.9284   3.8908 15.73170864  1979
STARLINK-4483           
1 53532U 22101F   22243.91667824  .00003714  00000+0  30804-4 0  9993
2 53532  53.2163  94.7403 0001057  44.8037  33.2652 15.73246927  1307
STARLINK-4493           
1 53533U 22101G   22244.16668981 -.00037507  00000+0 -26363-3 0  9990
2 53533  53.2145  93.4975 0001160  52.1526   3.4711 15.73233893  1974
STARLINK-4488           
1 53534U 22101H   22244.16668981 -.00000160  00000+0  32785-5 0  9992
2 53534  53.2151  93.4951 0001138  47.3478  10.6482 15.73140884  1975
STARLINK-4138           
1 53535U 22101J   22244.16668981  .00014395  00000+0  10697-3 0  9993
2 53535  53.2152  93.4971 0000975  50.7486   6.0639 15.73163113  1977
STARLINK-4053           
1 53536U 22101K   22244.16668981 -.00113345  00000+0 -81418-3 0  9990
2 53536  53.2152  93.4927 0001176  56.5794   2.6416 15.73197836  1973
STARLINK-4120           
1 53537U 22101L   22244.16668981 -.00079524  00000+0 -56494-3 0  9997
2 53537  53.2149  93.4978 0001363  57.2953 358.7292 15.73307300  1975
STARLINK-4118           
1 53538U 22101M   22243.91667824 -.00101377  00000+0 -72546-3 0  9993
2 53538  53.2155  94.7283 0001386  59.2471  23.7912 15.73237042  1308
STARLINK-4123           
1 53539U 22101N   22244.16668981 -.00042429  00000+0 -29915-3 0  9991
2 53539  53.2149  93.4950 0001227  48.2431   9.1441 15.73220747  1979
STARLINK-4486           
1 53540U 22101P   22244.16668981  .00009862  00000+0  74550-4 0  9991
2 53540  53.2154  93.4899 0001648  63.7526 357.2253 15.73218124  1977
STARLINK-4485           
1 53541U 22101Q   22244.16668981  .00018968  00000+0  13939-3 0  9992
2 53541  53.2150  93.4937 0001314  60.8468 357.7146 15.73177875  1973
STARLINK-4489           
1 53542U 22101R   22243.91667824  .00024302  00000+0  17677-3 0  9992
2 53542  53.2157  94.7251 0001251  53.0375  32.1312 15.73239192  1302
STARLINK-4297           
1 53543U 22101S   22243.91667824  .00039486  00000+0  28388-3 0  9993
2 53543  53.2157  94.7281 0001465  62.8262  20.6186 15.73245481  1305
STARLINK-4303           
1 53544U 22101T   22243.91667824 -.00046445  00000+0 -32716-3 0  9999
2 53544  53.2158  94.7227 0001420  60.7188  25.6997 15.73282379  1304
STARLINK-4475           
1 53545U 22101U   22243.91667824  .00033498  00000+0  24183-3 0  9991
2 53545  53.2158  94.7263 0001457  70.6702  13.8689 15.73229643  1309
STARLINK-4477           
1 53546U 22101V   22244.16668981 -.01192082  00000+0 -55596-2 0  9994
2 53546  53.2172  92.6141 0002855  44.4556  87.7816 15.85039061  1989
STARLINK-4474           
1 53547U 22101W   22243.91667824  .00030215  00000+0  21853-3 0  9998
2 53547  53.2160  94.7244 0001404  62.5483  23.2472 15.73242356  1302
STARLINK-4513           
1 53548U 22101X   22243.91667824 -.00077019  00000+0 -54868-3 0  9996
2 53548  53.2159  94.7179 0001257  56.5793  32.4176 15.73229616  1308
STARLINK-4516           
1 53549U 22101Y   22244.16668981  .00002151  00000+0  19710-4 0  9991
2 53549  53.2147  93.4816 0001278  59.8801   3.9851 15.73240802  1975
STARLINK-4518           
1 53550U 22101Z   22244.16668981  .00015619  00000+0  11531-3 0  9998
2 53550  53.2150  93.4785 0000914  37.9095  28.1575 15.73237479  1972
STARLINK-4514           
1 53551U 22101AA  22244.16668981 -.00102241  00000+0 -73315-3 0  9997
2 53551  53.2154  93.4824 0001252  58.8115   5.7403 15.73193302  1979
STARLINK-4495           
1 53552U 22101AB  22244.16668981  .00016057  00000+0  11886-3 0  9990
2 53552  53.2154  93.4758 0000999  46.0417  22.0634 15.73148278  1977
STARLINK-4501           
1 53553U 22101AC  22243.91667824 -.00068720  00000+0 -48904-3 0  9995
2 53553  53.2158  94.7149 0001323  56.0621  34.1203 15.73208603  1302
STARLINK-4506           
1 53554U 22101AD  22244.16668981 -.00084289  00000+0 -60114-3 0  9994
2 53554  53.2150  93.4721 0001149  65.8335   3.4946 15.73240484  1972
STARLINK-4504           
1 53555U 22101AE  22243.91667824 -.00073542  00000+0 -52330-3 0  9993
2 53555  53.2153  94.7123 0001381  61.8018  28.9756 15.73237944  1303
STARLINK-4505           
1 53556U 22101AF  22244.16668981 -.00046911  00000+0 -33188-3 0  9997
2 53556  53.2150  93.4703 0001251  60.3627  10.1525 15.73186744  1978
STARLINK-4502           
1 53557U 22101AG  22243.91667824 -.00060854  00000+0 -43174-3 0  9993
2 53557  53.2156  94.7112 0001305  61.2179  30.7477 15.73230620  1309
STARLINK-4494           
1 53558U 22101AH  22244.16668981 -.00085063  00000+0 -60735-3 0  9998
2 53558  53.2154  93.4687 0001275  62.3052   9.4063 15.73217374  1977
STARLINK-4508           
1 53559U 22101AJ  22244.16668981 -.00103388  00000+0 -73769-3 0  9991
2 53559  53.2153  93.4720 0001173  53.4547  16.3119 15.73314122  1970
STARLINK-4564           
1 53560U 22101AK  22244.16668981 -.00059145  00000+0 -41935-3 0  9994
2 53560  53.2151  93.4652 0001286  56.5769  16.3263 15.73233864  1972
STARLINK-4563           
1 53561U 22101AL  22244.16668981 -.00053241  00000+0 -37763-3 0  9990
2 53561  53.2150  93.4682 0001280  55.1484  15.9662 15.73181240  1976
STARLINK-4565           
1 53562U 22101AM  22243.91667824  .00034087  00000+0  24597-3 0  9994
2 53562  53.2155  94.7010 0001614  59.1223  37.9642 15.73231346  1309
STARLINK-4561           
1 53563U 22101AN  22244.16668981 -.00033572  00000+0 -23600-3 0  9992
2 53563  53.2152  93.4665 0001189  54.0168  18.2982 15.73174798  1977
STARLINK-4577           
1 53564U 22101AP  22243.91667824 -.00009932  00000+0 -66243-4 0  9994
2 53564  53.2153  94.6977 0001771  71.6786  26.6777 15.73261065  1302
